ATLAS CENTAUR 2         
1 00694U 63047A   26168.20910451  .00001082  00000+0  11662-3 0  9993
2 00694  30.3583 359.2715 0546003 237.7078 116.9502 14.12519675145709
THOR AGENA D R/B        
1 00733U 64002A   26168.64532555  .00000105  00000+0  54955-4 0  9990
2 00733  99.1154 187.4020 0032294 329.2236  30.7053 14.34065657252629
SL-3 R/B                
1 00877U 64053B   26168.87734740  .00000056  00000+0  35119-4 0  9996
2 00877  65.0777  37.4892 0081000 260.8977  98.2952 14.61426975281435
SL-8 R/B                
1 02802U 67045B   26168.91625707  .00000135  00000+0  44887-4 0  9997
2 02802  74.0094 160.8968 0063403 145.0980 215.4361 14.45682254103501
SL-8 R/B                
1 03230U 68040B   26168.84821647  .00002642  00000+0  19385-3 0  9991
2 03230  74.0308 108.9388 0025969 261.9457  97.8785 15.03820368105066
OAO 2                   
1 03597U 68110A   26168.05452578  .00000164  00000+0  49202-4 0  9990
2 03597  34.9942  70.4189 0006228 272.9047  87.0931 14.47352021 33503
ISIS 1                  
1 03669U 69009A   26168.89953566  .00000023  00000+0  17220-4 0  9992
2 03669  88.4427 144.3214 1706248 246.7845  94.4918 11.30433837359850
SERT 2                  
1 04327U 70009A   26168.84469205  .00000003  00000+0  60094-4 0  9998
2 04327  99.2841 106.5225 0003934 271.3127 153.7452 13.58739227793490
SL-3 R/B                
1 05118U 71028B   26168.88400377  .00044271  00000+0  36843-3 0  9997
2 05118  81.2336 287.4701 0014016 277.7661  82.2005 15.69797642  4352
ASTEX 1                 
1 05560U 71089A   26168.96890330  .00000301  00000+0  76502-4 0  9999
2 05560  92.6998 184.1076 0017909 103.9028 256.4171 14.50852156876843
SL-8 R/B                
1 05730U 71119B   26168.92086983  .00002697  00000+0  14030-3 0  9996
2 05730  73.8875 348.0866 0543753 293.9059  60.6042 14.39510740669906
OAO 3 (COPERNICUS)      
1 06153U 72065A   26168.09126617  .00000231  00000+0  51726-4 0  9990
2 06153  35.0058  90.9505 0007321 254.7067 122.1020 14.60060279860737
ATLAS CENTAUR R/B       
1 06155U 72065B   26168.88584861  .00000874  00000+0  12162-3 0  9991
2 06155  35.0013  78.4453 0033039 134.8655 225.4737 14.77922366856097
SL-8 R/B                
1 08459U 75112B   26168.52765875  .00000187  00000+0  70152-4 0  9994
2 08459  74.0592 195.2475 0016867 262.1518  97.7722 14.38246501646229
SL-3 R/B                
1 10114U 77057B   26168.92816514  .00009682  00000+0  18771-3 0  9993
2 10114  97.5838 345.5044 0005427 281.6490  78.4150 15.47898021683829
SEASAT 1                
1 10967U 78064A   26168.93125541  .00000170  00000+0  85950-4 0  9999
2 10967 108.0173 335.8507 0001796 240.4079 119.6887 14.46243824521001
SL-14 R/B               
1 11267U 79011B   26168.51087794  .00000438  00000+0  40562-4 0  9994
2 11267  82.5237   1.8470 0017534  84.6339 275.6880 14.92014486543668
SL-8 R/B                
1 11574U 79089B   26168.62110732  .00000171  00000+0  59574-4 0  9998
2 11574  74.0694 266.0541 0014986  49.6418 310.6044 14.42404192450518
SL-14 R/B               
1 11672U 80005B   26168.65674134  .00000345  00000+0  32236-4 0  9990
2 11672  82.5139 212.3948 0015530 184.2917 175.8172 14.91029197491381
SL-8 R/B                
1 12139U 81003B   26168.54874376  .00013576  00000+0  33114-3 0  9991
2 12139  82.9360 197.4359 0250759 189.9257 169.6979 15.14235486329777
SL-3 R/B                
1 12465U 81046B   26168.96697697  .00009682  00000+0  20892-3 0  9997
2 12465  81.2295 169.1297 0018473  35.2432 325.0029 15.44211677453892
SL-3 R/B                
1 12904U 81103B   26168.90848432  .00003317  00000+0  14274-3 0  9994
2 12904  81.1589  95.7861 0011790 313.4874  46.5376 15.22290904988475
SL-3 R/B                
1 13068U 82013B   26168.87981713  .00002822  00000+0  11893-3 0  9997
2 13068  81.1738  43.2450 0021435 198.5041 161.5414 15.22790642419597
SL-3 R/B                
1 13154U 82039B   26168.89599385  .00002934  00000+0  17489-3 0  9994
2 13154  81.1448 100.2671 0028734 353.8755   6.2115 15.10542997396768
SL-3 R/B                
1 13403U 82079B   26168.90321694  .00003673  00000+0  14161-3 0  9998
2 13403  81.1463  74.6406 0023740 183.0316 177.0778 15.25793738392978
SL-14 R/B               
1 13553U 82092B   26168.65666590  .00000310  00000+0  32025-4 0  9993
2 13553  82.5680  47.8641 0019627 333.6518  80.8810 14.86748091343780
SL-3 R/B                
1 13819U 83010B   26168.70498687  .00011247  00000+0  20444-3 0  9997
2 13819  81.1013 239.3273 0015500  60.6479 299.6313 15.49255030373415
SL-3 R/B                
1 14208U 83075B   26168.97838791  .00008149  00000+0  20183-3 0  9991
2 14208  97.6100 177.5151 0019367 226.0061 133.9588 15.40504581345585
COSMOS 1536             
1 14699U 84013A   26168.62166574  .00004657  00000+0  18470-3 0  9999
2 14699  82.5441   8.4120 0012654 293.6556  66.3353 15.25055656287849
SL-14 R/B               
1 14820U 84027B   26168.95562067  .00000354  00000+0  37607-4 0  9997
2 14820  82.5410 150.9964 0018076   6.7939 353.3519 14.86060214262525
