OBJECT_NAME,OBJECT_ID,EPOCH,MEAN_MOTION,ECCENTRICITY,INCLINATION,RA_OF_ASC_NODE,ARG_OF_PERICENTER,MEAN_ANOMALY,EPHEMERIS_TYPE,CLASSIFICATION_TYPE,NORAD_CAT_ID,ELEMENT_SET_NO,REV_AT_EPOCH,BSTAR,MEAN_MOTION_DOT,MEAN_MOTION_DDOT
ATLAS CENTAUR 2,1963-047A,2026-06-17T05:01:06.629664,14.12519675,.05460038,30.3583,359.2715,237.7078,116.9502,0,U,694,999,14570,.11661849E-3,.1082E-4,0
THOR AGENA D R/B,1964-002A,2026-06-17T15:29:16.127520,14.34065657,.00322943,99.1154,187.4020,329.2236,30.7053,0,U,733,999,25262,.549549E-4,.105E-5,0
SL-3 R/B,1964-053B,2026-06-17T21:03:22.815360,14.61426975,.00810005,65.0777,37.4892,260.8977,98.2952,0,U,877,999,28143,.35119185E-4,.56E-6,0
SL-8 R/B,1967-045B,2026-06-17T21:59:24.610848,14.45682254,.00634031,74.0094,160.8968,145.0980,215.4361,0,U,2802,999,10350,.44887019E-4,.135E-5,0
SL-8 R/B,1968-040B,2026-06-17T20:21:25.903008,15.03820368,.00259699,74.0308,108.9388,261.9457,97.8785,0,U,3230,999,10506,.19385193E-3,.2642E-4,0
OAO 2,1968-110A,2026-06-17T01:18:31.027392,14.47352021,.00062288,34.9942,70.4189,272.9047,87.0931,0,U,3597,999,3350,.49202077E-4,.164E-5,0
ISIS 1,1969-009A,2026-06-17T21:35:19.881024,11.30433837,.17062482,88.4427,144.3214,246.7845,94.4918,0,U,3669,999,35985,.17220349E-4,.23E-6,0
SERT 2,1970-009A,2026-06-17T20:16:21.393120,13.58739227,.00039349,99.2841,106.5225,271.3127,153.7452,0,U,4327,999,79349,.60093893E-4,.3E-7,0
SL-3 R/B,1971-028B,2026-06-17T21:12:57.925728,15.69797642,.00140163,81.2336,287.4701,277.7661,82.2005,0,U,5118,999,435,.36843077E-3,.44271E-3,0
ASTEX 1,1971-089A,2026-06-17T23:15:13.245120,14.50852156,.00179094,92.6998,184.1076,103.9028,256.4171,0,U,5560,999,87684,.76502478E-4,.301E-5,0
SL-8 R/B,1971-119B,2026-06-17T22:06:03.153312,14.39510740,.05437532,73.8875,348.0866,293.9059,60.6042,0,U,5730,999,66990,.14029542E-3,.2697E-4,0
OAO 3 (COPERNICUS),1972-065A,2026-06-17T02:11:25.397088,14.60060279,.0007321,35.0058,90.9505,254.7067,122.1020,0,U,6153,999,86073,.51725613E-4,.231E-5,0
ATLAS CENTAUR R/B,1972-065B,2026-06-17T21:15:37.319904,14.77922366,.00330398,35.0013,78.4453,134.8655,225.4737,0,U,6155,999,85609,.12162169E-3,.874E-5,0
SL-8 R/B,1975-112B,2026-06-17T12:39:49.716000,14.38246501,.0016867,74.0592,195.2475,262.1518,97.7722,0,U,8459,999,64622,.70152E-4,.187E-5,0
SL-3 R/B,1977-057B,2026-06-17T22:16:33.468096,15.47898021,.00054276,97.5838,345.5044,281.6490,78.4150,0,U,10114,999,68382,.18770915E-3,.9682E-4,0
SEASAT 1,1978-064A,2026-06-17T22:21:00.467424,14.46243824,.00017962,108.0173,335.8507,240.4079,119.6887,0,U,10967,999,52100,.85950123E-4,.17E-5,0
SL-14 R/B,1979-011B,2026-06-17T12:15:39.854016,14.92014486,.00175347,82.5237,1.8470,84.6339,275.6880,0,U,11267,999,54366,.40562463E-4,.438E-5,0
SL-8 R/B,1979-089B,2026-06-17T14:54:23.672448,14.42404192,.00149868,74.0694,266.0541,49.6418,310.6044,0,U,11574,999,45051,.59574229E-4,.171E-5,0
SL-14 R/B,1980-005B,2026-06-17T15:45:42.451776,14.91029197,.00155306,82.5139,212.3948,184.2917,175.8172,0,U,11672,999,49138,.32236387E-4,.345E-5,0
SL-8 R/B,1981-003B,2026-06-17T13:10:11.460864,15.14235486,.0250759,82.9360,197.4359,189.9257,169.6979,0,U,12139,999,32977,.33114E-3,.13576E-3,0
SL-3 R/B,1981-046B,2026-06-17T23:12:26.810208,15.44211677,.00184734,81.2295,169.1297,35.2432,325.0029,0,U,12465,999,45389,.20892101E-3,.9682E-4,0
SL-3 R/B,1981-103B,2026-06-17T21:48:13.045248,15.22290904,.00117906,81.1589,95.7861,313.4874,46.5376,0,U,12904,999,98847,.14273614E-3,.3317E-4,0
SL-3 R/B,1982-013B,2026-06-17T21:06:56.200032,15.22790642,.00214356,81.1738,43.2450,198.5041,161.5414,0,U,13068,999,41959,.11892757E-3,.2822E-4,0
SL-3 R/B,1982-039B,2026-06-17T21:30:13.868640,15.10542997,.00287344,81.1448,100.2671,353.8755,6.2115,0,U,13154,999,39676,.17489367E-3,.2934E-4,0
SL-3 R/B,1982-079B,2026-06-17T21:40:37.943616,15.25793738,.00237403,81.1463,74.6406,183.0316,177.0778,0,U,13403,999,39297,.14161452E-3,.3673E-4,0
SL-14 R/B,1982-092B,2026-06-17T15:45:35.933760,14.86748091,.00196279,82.5680,47.8641,333.6518,80.8810,0,U,13553,999,34378,.32024688E-4,.31E-5,0
SL-3 R/B,1983-010B,2026-06-17T16:55:10.865568,15.49255030,.00155009,81.1013,239.3273,60.6479,299.6313,0,U,13819,999,37341,.20443526E-3,.11247E-3,0
SL-3 R/B,1983-075B,2026-06-17T23:28:52.715424,15.40504581,.0019367,97.6100,177.5151,226.0061,133.9588,0,U,14208,999,34558,.20182759E-3,.8149E-4,0
COSMOS 1536,1984-013A,2026-06-17T14:55:11.919936,15.25055656,.00126547,82.5441,8.4120,293.6556,66.3353,0,U,14699,999,28784,.18470428E-3,.4657E-4,0
SL-14 R/B,1984-027B,2026-06-17T22:56:05.625888,14.86060214,.00180762,82.5410,150.9964,6.7939,353.3519,0,U,14820,999,26252,.3760698E-4,.354E-5,0
